sat25320
1 25320U 98026B   20046.78451914  .00000087  00000-0  21534-4 0  9992
2 25320  86.4014 191.5317 0003419  57.9903 302.1628 14.39232460143491
